STARLINK-36568          
1 68017U 26040C   26074.25001157 -.01480532  62385-3 -44812-2 0  9997
2 68017  97.2712  22.8994 0001381  84.7718 351.7336 15.92192272  3319
STARLINK-36930          
1 68018U 26040D   26074.25001157 -.01467659  61339-3 -44589-2 0  9992
2 68018  97.2708  22.8959 0001190  99.4398 328.7371 15.92118000  3311
STARLINK-36921          
1 68019U 26040E   26074.25001157 -.01483349  62670-3 -44658-2 0  9993
2 68019  97.2721  22.9037 0001275 105.1703 338.9459 15.92296919  3310
STARLINK-36928          
1 68020U 26040F   26074.25001157 -.01475536  62037-3 -44508-2 0  9995
2 68020  97.2712  22.9008 0001270  99.2739 340.7003 15.92258533  3313
STARLINK-36858          
1 68021U 26040G   26074.08277630 -.00198969  18307-4 -26017-3 0  9997
2 68021  97.2747  22.7903 0000340  89.7437 270.3884 16.06880902  2209
STARLINK-36916          
1 68022U 26040H   26074.25001157 -.01497097  63804-3 -44881-2 0  9990
2 68022  97.2715  22.9066 0001297 107.3728 344.9738 15.92380935  3313
STARLINK-36871          
1 68023U 26040J   26074.25001157 -.01497382  63852-3 -44798-2 0  9998
2 68023  97.2714  22.9073 0001347  97.1571 359.3393 15.92420664  3310
STARLINK-36891          
1 68024U 26040K   26074.25001157 -.01513630  65151-3 -45255-2 0  9997
2 68024  97.2715  22.9097 0001320  98.7940   2.5242 15.92435552  3318
STARLINK-36378          
1 68025U 26040L   26074.25001157 -.01523762  66003-3 -45412-2 0  9997
2 68025  97.2736  22.9147 0001283 105.2084   4.8945 15.92499105  3273
STARLINK-36884          
1 68026U 26040M   26074.25001157 -.01521335  65785-3 -45424-2 0  9991
2 68026  97.2726  22.9123 0001296  96.9934   8.8118 15.92462505  3316
STARLINK-36940          
1 68027U 26040N   26074.25001157 -.01908432  99943-3 -58192-2 0  9998
2 68027  97.2797  22.9452 0001564 104.8105  74.9741 15.92105372  3410
STARLINK-36944          
1 68029U 26040Q   26074.25001157 -.01524046  66056-3 -45314-2 0  9996
2 68029  97.2725  22.9148 0001320 101.6746  12.4464 15.92544640  3314
STARLINK-36942          
1 68030U 26040R   26074.25001157 -.01535322  66991-3 -45561-2 0  9999
2 68030  97.2742  22.9180 0001335 100.0194  18.4779 15.92583531  3314
STARLINK-36913          
1 68031U 26040S   26074.25001157 -.01536693  67127-3 -45516-2 0  9994
2 68031  97.2746  22.9202 0001336 109.4669  13.3890 15.92620220  3310
STARLINK-36935          
1 68032U 26040T   26074.25001157 -.01576917  70647-3 -45957-2 0  9998
2 68032  97.2772  22.9333 0001375 104.9705  48.1615 15.92938390  3411
STARLINK-36947          
1 68033U 26040U   26074.25001157 -.01539183  67368-3 -45455-2 0  9992
2 68033  97.2749  22.9215 0001297 106.5044  20.1847 15.92677797  3319
